NORAD_CAT_ID,OBJECT_NAME,OBJECT_TYPE,EPOCH,MEAN_MOTION,ECCENTRICITY,INCLINATION,RA_OF_ASC_NODE,ARG_OF_PERICENTER,MEAN_ANOMALY,BSTAR,MEAN_MOTION_DOT,MEAN_MOTION_DDOT,TLE_LINE0,TLE_LINE1,TLE_LINE2,SEMIMAJOR_AXIS,PERIOD,APOGEE,PERIGEE,DECAYED
53701.0,STARLINK-4711,PAYLOAD,2023-01-03 03:07:21,15.08840478,0.0001713,53.2171,58.1424,32.9961,327.1138,1.3704e-05,-7e-07,0.0,0 STARLINK-4711,1 53701U 22107B   23003.13010417 -.00000070  00000-0  13704-4 0  9990,2 53701  53.2171  58.1424 0001713  32.9961 327.1138 15.08840478 19508,6917.879,95.438,540.929,538.559,0.0
53701.0,STARLINK-4711,PAYLOAD,2023-01-03 07:53:32,15.08738957,0.0001324,53.2172,57.2502,39.6623,320.4465,0.0013421,0.00021077,0.0,0 STARLINK-4711,1 53701U 22107B   23003.32885008  .00021077  00000-0  13421-2 0  9990,2 53701  53.2172  57.2502 0001324  39.6623 320.4465 15.08738957 18789,6918.189,95.444,540.97,539.138,0.0
53701.0,STARLINK-4711,PAYLOAD,2023-01-03 11:04:17,15.0882967,0.0002166999999999,53.2174,56.6555,45.9322,314.1848,0.00018469,2.652e-05,0.0,0 STARLINK-4711,1 53701U 22107B   23003.46130826  .00002652  00000-0  18469-3 0  9992,2 53701  53.2174  56.6555 0002167  45.9322 314.1848 15.08829670 18805,6917.9119999999975,95.438,541.276,538.278,0.0
53701.0,STARLINK-4711,PAYLOAD,2023-01-04 09:19:41,15.08836945,0.0002181,53.2181,52.4929,41.9991,318.1168,0.00010609,1.4e-05,0.0,0 STARLINK-4711,1 53701U 22107B   23004.38867053  .00001400  00000-0  10609-3 0  9991,2 53701  53.2181  52.4929 0002181  41.9991 318.1168 15.08836945 19696,6917.89,95.438,541.264,538.246,0.0
53701.0,STARLINK-4711,PAYLOAD,2023-01-04 20:27:22,15.08850197,0.0002149,53.2174,50.4109,43.8492,316.2671,7.2286e-05,8.63e-06,0.0,0 STARLINK-4711,1 53701U 22107B   23004.85234136  .00000863  00000-0  72286-4 0  9995,2 53701  53.2174  50.4109 0002149  43.8492 316.2671 15.08850197 19016,6917.849,95.437,541.201,538.2280000000002,0.0
53701.0,STARLINK-4711,PAYLOAD,2023-01-05 12:21:13,15.08849728,0.0002056999999999,53.2177,47.4374,37.8894,322.2243,2.3107e-05,8e-07,0.0,0 STARLINK-4711,1 53701U 22107B   23005.51473738  .00000080  00000-0  23107-4 0  9991,2 53701  53.2177  47.4374 0002057  37.8894 322.2243 15.08849728 19869,6917.851,95.437,541.139,538.293,0.0
53701.0,STARLINK-4711,PAYLOAD,2023-01-06 12:12:02,15.08825763,0.0002169,53.2175,42.9781,40.7103,319.4051,-0.00029122,-4.918e-05,0.0,0 STARLINK-4711,1 53701U 22107B   23006.50836484 -.00004918  00000-0 -29122-3 0  9990,2 53701  53.2175  42.9781 0002169  40.7103 319.4051 15.08825763 19261,6917.924,95.438,541.289,538.288,0.0
53701.0,STARLINK-4711,PAYLOAD,2023-01-07 02:30:30,15.08829527,0.0001974,53.2199,40.3023,30.7589,329.3519,-6.2988e-05,-1.29e-05,0.0,0 STARLINK-4711,1 53701U 22107B   23007.10451547 -.00001290  00000-0 -62988-4 0  9998,2 53701  53.2199  40.3023 0001974  30.7589 329.3519 15.08829527 19359,6917.911999999998,95.438,541.143,538.4119999999998,0.0
53701.0,STARLINK-4711,PAYLOAD,2023-01-07 08:52:02,15.08840887,0.0002069,53.2176,39.1125,32.3731,327.7388,-4.0307e-05,-9.3e-06,0.0,0 STARLINK-4711,1 53701U 22107B   23007.36946798 -.00000930  00000-0 -40307-4 0  9994,2 53701  53.2176  39.1125 0002069  32.3731 327.7388 15.08840887 19398,6917.8780000000015,95.437,541.174,538.311,0.0
53701.0,STARLINK-4711,PAYLOAD,2023-01-07 18:24:21,15.08832133,0.0001976,53.2173,37.3272,27.333,332.7766,-1.9996e-05,-6.06e-06,0.0,0 STARLINK-4711,1 53701U 22107B   23007.76691391 -.00000606  00000-0 -19996-4 0  9994,2 53701  53.2173  37.3272 0001976  27.3330 332.7766 15.08832133 19451,6917.904,95.438,541.136,538.4019999999998,0.0
53701.0,STARLINK-4711,PAYLOAD,2023-01-08 02:21:17,15.08817677,0.0002032,53.2166,35.8413,28.9011,331.2093,8.5948e-05,1.079e-05,0.0,0 STARLINK-4711,1 53701U 22107B   23008.09812092  .00001079  00000-0  85948-4 0  9997,2 53701  53.2166  35.8413 0002032  28.9011 331.2093 15.08817677 19509,6917.949000000001,95.439,541.219,538.408,0.0
53701.0,STARLINK-4711,PAYLOAD,2023-01-08 08:42:49,15.08830935,0.0002177,53.2163,34.652,33.51,326.6029,2.8311e-05,1.62e-06,0.0,0 STARLINK-4711,1 53701U 22107B   23008.36307703  .00000162  00000-0  28311-4 0  9998,2 53701  53.2163  34.6520 0002177  33.5100 326.6029 15.08830935 19546,6917.908,95.438,541.279,538.2669999999998,0.0
53701.0,STARLINK-4711,PAYLOAD,2023-01-08 18:15:08,15.08833941,0.0002071,53.2185,32.868,33.9656,326.1469,0.00013871,1.92e-05,0.0,0 STARLINK-4711,1 53701U 22107B   23008.76051458  .00001920  00000-0  13871-3 0  9992,2 53701  53.2185  32.8680 0002071  33.9656 326.1469 15.08833941 20354,6917.899,95.438,541.197,538.331,0.0
53701.0,STARLINK-4711,PAYLOAD,2023-01-09 08:33:37,15.08835668,0.0002115,53.2189,30.1922,41.0822,319.033,-1.2814e-05,-4.92e-06,0.0,0 STARLINK-4711,1 53701U 22107B   23009.35668178 -.00000492  00000-0 -12814-4 0  9993,2 53701  53.2189  30.1922 0002115  41.0822 319.0330 15.08835668 20448,6917.894,95.438,541.222,538.295,0.0
53701.0,STARLINK-4711,PAYLOAD,2023-01-10 08:24:24,15.08834324,0.0001944,53.2172,25.7311,32.0767,328.0343,5.042e-05,5.14e-06,0.0,0 STARLINK-4711,1 53701U 22107B   23010.35027960  .00000514  00000-0  50420-4 0  9991,2 53701  53.2172  25.7311 0001944  32.0767 328.0343 15.08834324 19843,6917.898,95.438,541.1080000000002,538.418,0.0
53701.0,STARLINK-4711,PAYLOAD,2023-01-10 09:59:47,15.08837281,0.0001977,53.2169,25.433000000000003,29.9345,330.176,2.1845e-06,-2.53e-06,0.0,0 STARLINK-4711,1 53701U 22107B   23010.41651969 -.00000253  00000-0  21845-5 0  9991,2 53701  53.2169  25.4330 0001977  29.9345 330.1760 15.08837281 20608,6917.889,95.438,541.121,538.386,0.0
53701.0,STARLINK-4711,PAYLOAD,2023-01-10 17:56:42,15.08847615,0.0002067,53.2164,23.9455,32.7391,327.3729,1.0356e-05,-1.23e-06,0.0,0 STARLINK-4711,1 53701U 22107B   23010.74771236 -.00000123  00000-0  10356-4 0  9997,2 53701  53.2164  23.9455 0002067  32.7391 327.3729 15.08847615 19904,6917.857,95.437,541.1519999999998,538.2919999999998,0.0
53701.0,STARLINK-4711,PAYLOAD,2023-01-11 06:39:47,15.08839088,0.0002051,53.2167,21.5671,36.6609,323.4524,5.0386e-05,5.14e-06,0.0,0 STARLINK-4711,1 53701U 22107B   23011.27763563  .00000514  00000-0  50386-4 0  9990,2 53701  53.2167  21.5671 0002051  36.6609 323.4524 15.08839088 19982,6917.883000000002,95.438,541.1669999999998,538.3290000000002,0.0
53701.0,STARLINK-4711,PAYLOAD,2023-01-11 08:15:10,15.08844621,0.0002172,53.2171,21.2702,44.1001,316.0164,8.117399999999999e-05,1.004e-05,0.0,0 STARLINK-4711,1 53701U 22107B   23011.34387126  .00001004  00000-0  81174-4 0  9999,2 53701  53.2171  21.2702 0002172  44.1001 316.0164 15.08844621 20746,6917.866,95.437,541.234,538.229,0.0
53701.0,STARLINK-4711,PAYLOAD,2023-01-11 17:47:29,15.08845668,0.0002114,53.217,19.4851,38.8741,321.2403,8.3128e-06,-1.56e-06,0.0,0 STARLINK-4711,1 53701U 22107B   23011.74131098 -.00000156  00000-0  83128-5 0  9998,2 53701  53.2170  19.4851 0002114  38.8741 321.2403 15.08845668 20809,6917.863,95.437,541.191,538.266,0.0
53701.0,STARLINK-4711,PAYLOAD,2023-01-12 00:09:01,15.0884624,0.0002104,53.2169,18.2959,36.3678,323.7457,1.1761e-05,-1.01e-06,0.0,0 STARLINK-4711,1 53701U 22107B   23012.00626908 -.00000101  00000-0  11761-4 0  9990,2 53701  53.2169  18.2959 0002104  36.3678 323.7457 15.08846240 20098,6917.861,95.437,541.182,538.271,0.0
53701.0,STARLINK-4711,PAYLOAD,2023-01-12 17:38:16,15.08832083,0.000209,53.2166,15.0257,41.5715,318.5435,-8.240399999999999e-05,-1.599e-05,0.0,0 STARLINK-4711,1 53701U 22107B   23012.73491794 -.00001599  00000-0 -82404-4 0  9998,2 53701  53.2166  15.0257 0002090  41.5715 318.5435 15.08832083 20206,6917.905,95.438,541.215,538.3240000000002,0.0
53701.0,STARLINK-4711,PAYLOAD,2023-01-12 23:59:50,15.08825407,0.0002156,53.2165,13.8352,52.8199,307.2990000000001,-0.00013794,-2.482e-05,0.0,0 STARLINK-4711,1 53701U 22107B   23012.99988601 -.00002482  00000-0 -13794-3 0  9991,2 53701  53.2165  13.8352 0002156  52.8199 307.2990 15.08825407 20248,6917.925,95.438,541.281,538.298,0.0
53701.0,STARLINK-4711,PAYLOAD,2023-01-13 09:32:09,15.08829629,0.0001927,53.2172,12.0499,53.2779,306.839,-0.00018086,-3.165e-05,0.0,0 STARLINK-4711,1 53701U 22107B   23013.39732741 -.00003165  00000-0 -18086-3 0  9996,2 53701  53.2172  12.0499 0001927  53.2779 306.8390 15.08829629 21052,6917.911999999999,95.438,541.11,538.444,0.0
53701.0,STARLINK-4711,PAYLOAD,2023-01-14 06:12:09,15.08829611,0.0001749,53.2183,8.1838,46.2603,313.8534,-1.3388e-05,-5.01e-06,0.0,0 STARLINK-4711,1 53701U 22107B   23014.25844603 -.00000501  00000-0 -13388-4 0  9995,2 53701  53.2183   8.1838 0001749  46.2603 313.8534 15.08829611 20437,6917.911999999999,95.438,540.987,538.567,0.0
53701.0,STARLINK-4711,PAYLOAD,2023-01-14 09:22:55,15.08841866,0.0001721999999999,53.2185,7.5885,53.5191,306.596,-6.0152e-05,-1.245e-05,0.0,0 STARLINK-4711,1 53701U 22107B   23014.39092047 -.00001245  00000-0 -60152-4 0  9994,2 53701  53.2185   7.5885 0001722  53.5191 306.5960 15.08841866 20458,6917.875,95.437,540.931,538.548,0.0
53701.0,STARLINK-4711,PAYLOAD,2023-01-14 23:41:24,15.08819761,0.000168,53.2175,4.9135,65.6338,294.483,0.00011117,1.481e-05,0.0,0 STARLINK-4711,1 53701U 22107B   23014.98709163  .00001481  00000-0  11117-3 0  9999,2 53701  53.2175   4.9135 0001680  65.6338 294.4830 15.08819761 20546,6917.941999999999,95.439,540.969,538.645,0.0
53701.0,STARLINK-4711,PAYLOAD,2023-01-15 06:02:56,15.08833734,0.0001439,53.2176,3.724,48.1879,311.9236,0.00021747,3.174e-05,0.0,0 STARLINK-4711,1 53701U 22107B   23015.25204189  .00003174  00000-0  21747-3 0  9999,2 53701  53.2176   3.7240 0001439  48.1879 311.9236 15.08833734 20584,6917.9,95.438,540.76,538.769,0.0
53701.0,STARLINK-4711,PAYLOAD,2023-01-15 09:13:42,15.08839882,0.0001821,53.2181,3.1297,59.9898,300.1275,0.00017132,2.44e-05,0.0,0 STARLINK-4711,1 53701U 22107B   23015.38452013  .00002440  00000-0  17132-3 0  9992,2 53701  53.2181   3.1297 0001821  59.9898 300.1275 15.08839882 21351,6917.880999999999,95.438,541.005,538.486,0.0
